
stk.v.11.0
BEGIN Ephemeris
NumberOfEphemerisPoints 4973
ScenarioEpoch 01 Jan 1970 00:00:00.000000
CentralBody Earth
CoordinateSystem ICRF
DistanceUnit Meters
EphemerisTimePosVel
6.7651198400000000e+08  2.6341979248899999e+08  2.1929859156299999e+08  1.2813111835900000e+08 -7.8076587099999995e+02  6.9438579300000004e+02  2.5211970400000001e+02
6.7694398400000000e+08 -1.7390533525999999e+08  2.9277633855599999e+08  1.2091939564200000e+08 -9.6740347999999994e+02 -4.0787349200000000e+02 -2.8431255800000002e+02
6.7737598400000000e+08 -3.8172279575999999e+08 -3.7008365381999999e+07 -5.4022394049000002e+07  8.7394248000000005e+01 -9.1498413000000005e+02 -4.2174540999999999e+02
6.7780798400000000e+08 -1.3844123952300000e+08 -3.3865686243599999e+08 -1.7242385310699999e+08  9.0558248500000002e+02 -3.5200469399999997e+02 -7.8269473000000005e+01
6.7823998400000000e+08  2.5465766689800000e+08 -2.9231402226300001e+08 -1.1274381573600000e+08  7.3802222700000004e+02  5.4674312499999996e+02  3.2822618199999999e+02
6.7867198400000000e+08  3.7564938315799999e+08  5.4073400696999997e+07  6.1751080104999997e+07 -2.6077257600000002e+02  9.0050276299999996e+02  3.9804183399999999e+02
6.7910398400000000e+08  5.0494103527000003e+07  3.2022167630100000e+08  1.5539012564700001e+08 -1.0827894530000001e+03  1.5281215700000001e+02 -3.2949147000000004e+01
6.7953598400000000e+08 -3.3759199393599999e+08  1.4412011315400001e+08  3.5070960138999999e+07 -4.7629567900000001e+02 -8.4433035700000005e+02 -4.4290026699999999e+02
6.7996798400000000e+08 -2.9039990442500001e+08 -2.3293652827599999e+08 -1.3756213980000001e+08  6.3021950200000003e+02 -7.0838237500000002e+02 -2.7193461300000001e+02
6.8039998400000000e+08  8.7396298241999999e+07 -3.6187324181900001e+08 -1.6164490544200000e+08  9.4415841999999998e+02  1.5914924900000000e+02  1.6591298000000000e+02
6.8083198400000000e+08  3.7719468685100001e+08 -1.1977678780200000e+08 -1.9988655620999999e+07  2.5595087400000000e+02  8.5932697399999995e+02  4.2817665699999998e+02
6.8126398400000000e+08  2.5021084004800001e+08  2.4252438366900000e+08  1.3788846571300000e+08 -8.0906810399999995e+02  6.2561022300000002e+02  2.1586125000000001e+02
6.8169598400000000e+08 -1.8349557380199999e+08  2.8692279071799999e+08  1.1710116027000000e+08 -9.3824788200000000e+02 -4.6774633499999999e+02 -3.0934613100000001e+02
6.8212798400000000e+08 -3.6911311834200001e+08 -6.2943835079000004e+07 -6.4716624413999997e+07  1.6066673100000000e+02 -9.3065621999999996e+02 -4.2080541199999999e+02
6.8255998400000000e+08 -1.0062305360300000e+08 -3.4969253324000001e+08 -1.7341986209200001e+08  9.2962337200000002e+02 -2.7632460400000002e+02 -4.0729432000000003e+01
6.8299198400000000e+08  2.8292396105199999e+08 -2.6684910876899999e+08 -9.8159163032000005e+07  6.7286461899999995e+02  6.2385293000000001e+02  3.5568090799999999e+02
6.8342398400000000e+08  3.6528667844099998e+08  9.5014216297999993e+07  7.8774339710999995e+07 -3.5281600800000001e+02  8.8001658699999996e+02  3.7758683100000002e+02
6.8385598400000000e+08  2.3411607971999999e+07  3.3276152486699998e+08  1.5744082011100000e+08 -1.0576417190000000e+03  7.1554488000000006e+01 -6.6453012999999999e+01
6.8428798400000000e+08 -3.4212343822399998e+08  1.3181477738500001e+08  2.9369273140000001e+07 -4.1391192599999999e+02 -8.8122738300000003e+02 -4.4926527800000002e+02
6.8471998400000000e+08 -2.6639624794999999e+08 -2.4987269159599999e+08 -1.4106185512599999e+08  6.8907031700000005e+02 -6.8282915500000001e+02 -2.5250577799999999e+02
6.8515198400000000e+08  1.2018798328600000e+08 -3.5427646277800000e+08 -1.5320351701300001e+08  9.1902763700000003e+02  2.3336300199999999e+02  1.9466897100000000e+02
6.8558398400000000e+08  3.8188434438999999e+08 -8.4590159987000003e+07 -3.6430625410000002e+06  1.5824081400000000e+02  8.9935657700000002e+02  4.3127299399999998e+02
6.8601598400000000e+08  2.1331389003799999e+08  2.7202234433899999e+08  1.4550649909500000e+08 -8.7162690599999996e+02  5.5444130800000005e+02  1.7444263000000001e+02
6.8644798400000000e+08 -2.1411712730599999e+08  2.8049537669099998e+08  1.0936300477100000e+08 -8.6137212999999997e+02 -5.2857269599999995e+02 -3.2455881499999998e+02
6.8687998400000000e+08 -3.6451436239399999e+08 -7.9964658576000005e+07 -7.0779880797999993e+07  2.3461056400000001e+02 -9.2857756099999995e+02 -4.0522400599999997e+02
6.8731198400000000e+08 -7.2637039165000007e+07 -3.5524677921600002e+08 -1.6983868415400001e+08  9.5224957099999995e+02 -2.2615981199999999e+02 -1.3967537000000000e+01
6.8774398400000000e+08  3.0148582718199998e+08 -2.4869108831400001e+08 -8.5598905141000003e+07  6.1071545800000001e+02  6.7190841799999998e+02  3.6585080900000003e+02
6.8817598400000000e+08  3.4628976548199999e+08  1.2365614475100000e+08  8.9162048546000004e+07 -4.5470580699999999e+02  8.6996818299999995e+02  3.5488088299999998e+02
6.8860798400000000e+08 -2.5063842964000002e+07  3.3531502335699999e+08  1.5062267773300001e+08 -1.0584319170000001e+03 -2.5217839000000001e+01 -1.1235955900000000e+02
6.8903998400000000e+08 -3.6077895964399999e+08  1.0627541881400000e+08  1.4077672987000000e+07 -3.1108564799999999e+02 -8.9460380799999996e+02 -4.3770939900000002e+02
6.8947198400000000e+08 -2.4916814473500001e+08 -2.6624496597200000e+08 -1.4492844151199999e+08  7.4602207399999998e+02 -6.4004247499999997e+02 -2.1957968700000001e+02
6.8990398400000000e+08  1.4649568270500001e+08 -3.4866056691100001e+08 -1.4421648277200001e+08  8.9926397199999997e+02  2.8344804699999997e+02  2.1607231400000001e+02
6.9033598400000000e+08  3.8583102301700002e+08 -6.6085315387000002e+07  7.4654897850000001e+06  8.5509916000000004e+01  9.0530918899999995e+02  4.1963360899999998e+02
6.9076798400000000e+08  1.8345793480500001e+08  2.8156501467199999e+08  1.4556034997000000e+08 -9.4464466800000002e+02  4.9937378699999999e+02  1.3421046899999999e+02
6.9119998400000000e+08 -2.5036790466299999e+08  2.5421005791999999e+08  9.0615495047000006e+07 -7.9909755399999995e+02 -6.0751626999999996e+02 -3.5408911100000000e+02
6.9163198400000000e+08 -3.5936175303100002e+08 -1.1393943037199999e+08 -8.7024418503000006e+07  3.2610104799999999e+02 -8.8819410300000004e+02 -3.7039532800000001e+02
6.9206398400000000e+08 -4.3702215876999997e+07 -3.6244052786199999e+08 -1.6838181749399999e+08  9.6978000199999997e+02 -1.5698105200000001e+02  2.5116513999999999e+01
6.9249598400000000e+08  3.2190984180299997e+08 -2.3265886636100000e+08 -7.3233235755999997e+07  5.5931849199999999e+02  6.9859484099999997e+02  3.7219011000000000e+02
6.9292798400000000e+08  3.4212910943900001e+08  1.3638130016299999e+08  9.5927544452000007e+07 -5.0662664300000000e+02  8.3599370699999997e+02  3.2799272700000000e+02
6.9335998400000000e+08 -4.8055337832000002e+07  3.2542986246399999e+08  1.4250617239899999e+08 -1.0826935679999999e+03 -1.0172406500000000e+02 -1.5447039799999999e+02
6.9379198400000000e+08 -3.6801217312000000e+08  6.5618879552000001e+07 -7.1932839199999999e+06 -2.1911475700000000e+02 -9.2477606200000002e+02 -4.4070792100000000e+02
6.9422398400000000e+08 -2.2016740677399999e+08 -2.9235267078399998e+08 -1.5445379988400000e+08  7.9697599300000002e+02 -5.6075961299999994e+02 -1.7397432200000000e+02
6.9465598400000000e+08  1.7924744096200001e+08 -3.3866818744199997e+08 -1.3537946497999999e+08  8.6928323999999998e+02  3.5625209699999999e+02  2.4840046599999999e+02
6.9508798400000000e+08  3.9544493357099998e+08 -4.0739672344999999e+07  2.1133758392000001e+07  2.4521815000000000e+01  8.9505648499999995e+02  4.0754067600000002e+02
6.9551998400000000e+08  1.7726144996399999e+08  2.8899576434399998e+08  1.4852859647099999e+08 -9.5690750600000001e+02  4.4481269200000003e+02  1.0562324400000000e+02
6.9595198400000000e+08 -2.5707098602900001e+08  2.3523909312400001e+08  8.0851646412000000e+07 -7.7615903500000002e+02 -6.7839841300000001e+02 -3.8424655500000000e+02
6.9638398400000000e+08 -3.3831956434100002e+08 -1.4910630221700001e+08 -1.0104952831400000e+08  4.0825153499999999e+02 -8.6782139700000005e+02 -3.5171267899999998e+02
6.9681598400000000e+08 -3.1839251230000001e+06 -3.6816355300199997e+08 -1.6679267538200000e+08  9.6827934200000004e+02 -6.3528227000000001e+01  6.7225024000000005e+01
6.9724798400000000e+08  3.4477973035799998e+08 -2.0344100256900001e+08 -5.8036330381999999e+07  4.8759962899999999e+02  7.5177196800000002e+02  3.8730994500000003e+02
6.9767998400000000e+08  3.3445254254000002e+08  1.6646212448400000e+08  1.0777382437800001e+08 -5.5239814699999999e+02  7.8741027699999995e+02  3.0063010200000002e+02
6.9811198400000000e+08 -5.6096145350000001e+07  3.2931686319499999e+08  1.4287990852500001e+08 -1.0553121739999999e+03 -1.5533742200000000e+02 -1.7313240800000000e+02
6.9854398400000000e+08 -3.6069253719099998e+08  4.7569628572999999e+07 -1.3588876409000000e+07 -1.6288691700000001e+02 -9.6919238199999995e+02 -4.5154347700000000e+02
6.9897598400000000e+08 -1.8455136166000000e+08 -3.0966057518599999e+08 -1.5692008613900000e+08  8.4426615900000002e+02 -5.0627013599999998e+02 -1.4514681600000000e+02
6.9940798400000000e+08  2.1368396086399999e+08 -3.2210746663999999e+08 -1.2388532293200000e+08  8.1850478099999998e+02  4.3868442800000003e+02  2.7579745500000001e+02
6.9983998400000000e+08  3.9506750287099999e+08 -3.8407332400000002e+05  3.7617828777000003e+07 -7.1668948000000000e+01  9.0863751300000001e+02  3.9926443499999999e+02
7.0027198400000000e+08  1.4919193282200000e+08  3.1240962293699998e+08  1.5362270352100000e+08 -9.6414160900000002e+02  3.6797958000000000e+02  7.1333550000000002e+01
7.0070398400000000e+08 -2.6753730705599999e+08  2.3234101049399999e+08  7.7901213971000001e+07 -7.1661018000000001e+02 -7.1447199799999999e+02 -3.8691293300000001e+02
7.0113598400000000e+08 -3.2243790704799998e+08 -1.6232571995400000e+08 -1.0286946042700000e+08  4.7487589800000001e+02 -8.7166782899999998e+02 -3.4156577700000003e+02
END Ephemeris